0 IRIDIUM 33 DEB
1 34927U 97051NG  13275.96867363  .00947641  00000-0  28378-1 0   129
2 34927 086.3060 095.0608 0008147 293.8439 066.1956 15.32066736241702
0 IRIDIUM 33 DEB
1 34927U 97051NG  13276.49103729  .00704163  00000-0  20574-1 0   138
2 34927 086.3072 094.7994 0008582 295.4950 064.5412 15.32787120241782
0 IRIDIUM 33 DEB
1 34927U 97051NG  13277.46998409  .00573084  00000-0  16301-1 0   143
2 34927 086.3081 094.3106 0009440 298.2825 061.7472 15.33751204241936
0 IRIDIUM 33 DEB
1 34927U 97051NG  13277.79616996  .00610727  00000-0  17366-1 0   156
2 34927 086.3083 094.1466 0009619 298.2884 061.7395 15.33988851241987
0 IRIDIUM 33 DEB
1 34927U 97051NG  13277.92663267  .00532158  00000-0  15048-1 0   161
2 34927 086.3082 094.0811 0009627 298.8897 061.1387 15.34110965242001
0 IRIDIUM 33 DEB
1 34927U 97051NG  13278.51357218  .00500447  00000-0  13976-1 0   178
2 34927 086.3083 093.7867 0009948 301.0006 059.0267 15.34638502242098
0 IRIDIUM 33 DEB
1 34927U 97051NG  13278.77436773  .00639281  00000-0  17610-1 0   189
2 34927 086.3077 093.6553 0010150 301.8356 058.1906 15.34892594242133
0 IRIDIUM 33 DEB
1 34927U 97051NG  13278.96994273  .00576648  00000-0  15734-1 0   197
2 34927 086.3077 093.5573 0010203 302.6515 057.3751 15.35055182242166
0 IRIDIUM 33 DEB
1 34927U 97051NG  13279.49136127  .00497274  00000-0  13477-1 0   203
2 34927 086.3090 093.2940 0010097 289.3490 070.7079 15.35598801242241
0 IRIDIUM 33 DEB
1 34927U 97051NG  13279.94744999  .00665830  00000-0  17648-1 0   215
2 34927 086.3069 093.0659 0011037 304.8948 055.1265 15.36009888242313
0 IRIDIUM 33 DEB
1 34927U 97051NG  13280.46852263  .00825864  00000-0  21333-1 0   220
2 34927 086.3064 092.8039 0011276 306.8831 053.1387 15.36690583242394
0 IRIDIUM 33 DEB
1 34927U 97051NG  13280.79407247  .00767618  00000-0  19697-1 0   237
2 34927 086.3065 092.6404 0011475 306.8575 053.1625 15.37069776242441
0 IRIDIUM 33 DEB
1 34927U 97051NG  13280.92427106  .00754522  00000-0  19054-1 0   246
2 34927 086.3083 092.5751 0011832 309.0478 050.9720 15.37211762242466
0 IRIDIUM 33 DEB
1 34927U 97051NG  13281.44489386  .00751526  00000-0  18469-1 0   253
2 34927 086.3076 092.3143 0012590 310.0769 049.9379 15.38063820242546
0 IRIDIUM 33 DEB
1 34927U 97051NG  13281.77014649  .00888040  00000-0  21464-1 0   267
2 34927 086.3068 092.1499 0013111 310.5383 049.4728 15.38563708242594
0 IRIDIUM 33 DEB
1 34927U 97051NG  13282.48520594  .01903467  00000-0  42103-1 0   273
2 34927 086.3041 091.7851 0024515 311.6121 048.3032 15.40329357242706
0 IRIDIUM 33 DEB
1 34927U 97051NG  13282.93981775  .01360206  00000-0  29880-1 0   281
2 34927 086.3044 091.5577 0014011 312.7237 047.2837 15.41216792242779
0 IRIDIUM 33 DEB
1 34927U 97051NG  13283.78326592  .01633579  00000-0  33056-1 0   292
2 34927 086.3029 091.1297 0014826 314.2349 045.7688 15.43138969242905
0 IRIDIUM 33 DEB
1 34927U 97051NG  13283.91294260  .01345406  00000-0  27186-1 0   301
2 34927 086.3045 091.0653 0015614 315.8509 044.1499 15.43275618242927
0 IRIDIUM 33 DEB
1 34927U 97051NG  13285.46705992  .01590980  00000-0  28005-1 0   335
2 34927 086.3003 090.2700 0019277 319.9427 040.0408 15.47296223243169
0 IRIDIUM 33 DEB
1 34927U 97051NG  13285.72569492  .01777965  00000-0  30170-1 0   344
2 34927 086.2998 090.1375 0019548 319.3983 040.5816 15.48004055243204
0 IRIDIUM 33 DEB
1 34927U 97051NG  13285.91959637  .01786753  00000-0  29969-1 0   359
2 34927 086.2996 090.0382 0019814 320.6804 039.3014 15.48320460243232
0 IRIDIUM 33 DEB
1 34927U 97051NG  13286.43632107  .01830419  00000-0  28750-1 0   364
2 34927 086.2979 089.7741 0020397 321.8375 038.1438 15.50120714243310
0 IRIDIUM 33 DEB
1 34927U 97051NG  13286.69447495  .01766335  00000-0  27108-1 0   378
2 34927 086.2993 089.6423 0020798 315.4864 044.4018 15.50892239243355
0 IRIDIUM 33 DEB
1 34927U 97051NG  13286.75900567  .01976638  00000-0  30486-1 0   382
2 34927 086.2979 089.6094 0021609 321.5224 038.4493 15.50894975243363
0 IRIDIUM 33 DEB
1 34927U 97051NG  13287.14596301  .02005255  00000-0  29631-1 0   393
2 34927 086.2991 089.4115 0022621 323.7852 036.1876 15.52042563243422
0 IRIDIUM 33 DEB
1 34927U 97051NG  13287.46818210  .02459931  00000-0  33974-1 0   405
2 34927 086.2975 089.2447 0023296 323.6593 036.3085 15.53236513243470
0 IRIDIUM 33 DEB
1 34927U 97051NG  13287.72576063  .03434732  00000-0  45478-1 0   417
2 34927 086.2932 089.1079 0023623 322.2943 037.6662 15.54371766243512
0 IRIDIUM 33 DEB
1 34927U 97051NG  13287.91869970  .07339249  00000-0  96834-1 0   424
2 34927 086.2901 088.9981 0035247 316.7166 043.1326 15.53041130243547
0 IRIDIUM 33 DEB
1 34927U 97051NG  13288.43285413  .07809139  00000-0  88952-1 0   439
2 34927 086.2893 088.7322 0029969 318.8740 041.0263 15.56946758243628
0 IRIDIUM 33 DEB
1 34927U 97051NG  13288.75361940  .07700066  00000-0  81722-1 0   442
2 34927 086.2882 088.5648 0030472 316.3746 043.5108 15.58909218243677
0 IRIDIUM 33 DEB
1 34927U 97051NG  13289.13798241  .08235301  00000-0  79782-1 0   453
2 34927 086.2881 088.3640 0034270 318.9329 040.9355 15.60903182243730
0 IRIDIUM 33 DEB
1 34927U 97051NG  13289.20197533  .07695986  00000-0  74946-1 0   464
2 34927 086.2867 088.3292 0033425 318.0136 041.8566 15.61107150243742
0 IRIDIUM 33 DEB
1 34927U 97051NG  13289.71334917  .06742399  00000-0  51185-1 0   481
2 34927 086.2842 088.0643 0025822 323.5992 036.3519 15.67559866243811
0 IRIDIUM 33 DEB
1 34927U 97051NG  13289.71334917  .06742399  00000-0  51185-1 0   492
2 34927 086.2842 088.0643 0025822 323.5992 036.3519 15.67559866243811
